458P/Jahn,e,13.6283,1.5877,104.8017,3.856485,0.1301417,0.31694407,39.5403,08/30.0/2023,2000,g 17.3,4.0
# From MPEC 2023-Q33
459P/Catalina,e,7.1721,256.9948,205.1877,3.239040,0.1690751,0.57760396,32.0583,08/30.0/2023,2000,g 15.5,4.0
# From MPEC 2023-G14
460P/PANSTARRS,e,18.8949,180.5155,351.9657,3.027076,0.1871411,0.66407467,150.5347,08/30.0/2023,2000,g 21.0,4.0
# From MPEC 2023-J95
461P/WISE,e,18.4123,194.3756,174.8134,3.142710,0.1769081,0.57029772,122.7861,08/30.0/2023,2000,g 18.5,4.0
# From MPEC 2023-JA3
462P/LONEOS-PANSTARRS,e,7.0243,322.8284,4.4164,4.883769,0.0913211,0.57838412,35.8799,08/30.0/2023,2000,g 17.0,4.0
# From MPEC 2023-Q33
463P/NEOWISE,e,29.2795,283.2091,216.3656,2.974719,0.1921035,0.82555608,29.4650,08/30.0/2023,2000,g 18.0,4.0
# From MPEC 2023-Q33
464P/PANSTARRS,e,21.6641,309.5875,267.6851,4.687899,0.0971039,0.28060618,17.7631,08/30.0/2023,2000,g 10.5,4.0
# From MPEC 2023-Q33
465P/Hill,e,25.8707,218.0114,141.2382,6.039188,0.0664104,0.61422119,7.4452,08/30.0/2023,2000,g 12.5,4.0
# From MPEC 2023-Q33
466P/PANSTARRS,e,12.2359,119.8668,196.7100,4.042162,0.1212784,0.46694080,14.3489,08/30.0/2023,2000,g 14.0,4.0
# From MPC107687
1I/`Oumuamua,h,09/09.4886/2017,122.6778,24.5997,241.6845,1.199252,0.255240,2000,23.0,2.0
# From MPEC 2023-L37
2I/Borisov,h,12/08.5548/2019,44.0527,308.1480,209.1251,3.356633,2.006548,2000,11.0,4.0
